GLOBALSTAR M035         
1 25851U 99037A   25286.34108475 -.00000113  00000+0 -18712-2 0  9991
2 25851  51.9919 151.4710 0013394 168.5162   3.2806 11.04539929109311
GLOBALSTAR M032         
1 25852U 99037B   25286.32840165 -.00000059  00000+0  23778-3 0  9996
2 25852  51.9978 328.5499 0012297   6.2686 353.8266 11.19063030148013
GLOBALSTAR M051         
1 25853U 99037C   25286.19673682 -.00000083  00000+0 -28466-3 0  9997
2 25853  51.9761 116.2063 0001516  80.5420 279.5562 11.42205340145878
GLOBALSTAR M030         
1 25854U 99037D   25286.28981270 -.00000093  00000+0 -39226-3 0  9990
2 25854  51.9870 274.5793 0002984 262.1278  97.9200 11.55114746163691
GLOBALSTAR M048         
1 25872U 99041A   25286.32423568 -.00000068  00000+0  52279-4 0  9996
2 25872  51.9383  55.4974 0013488  33.0507 345.5988 11.33859408138388
GLOBALSTAR M026         
1 25873U 99041B   25286.29420604 -.00000104  00000+0 -14578-2 0  9991
2 25873  51.9999 268.2892 0001824 100.4932  39.3821 11.06851900161566
GLOBALSTAR M043         
1 25874U 99041C   25286.21103517 -.00000035  00000+0  97431-3 0  9997
2 25874  51.9382 168.1178 0013404 148.6516   2.2182 11.25694754136167
GLOBALSTAR M028         
1 25875U 99041D   25286.04081361 -.00000107  00000+0 -44554-4 0  9991
2 25875  51.9620 201.6452 0063307 328.0731  31.6301 12.50589283204929
